{
  "norad_id": 39122,
  "name": "EUTELSAT 117 WEST A",
  "history": [
    {
      "epoch": "2026-03-28T15:56:28.656384",
      "apogee_km": 35798.82742671023,
      "perigee_km": 35774.31708122091,
      "latitude_deg": -0.04189561800517512,
      "longitude_deg": -44.03482624003664,
      "semi_major_axis_km": 42164.70925396557,
      "eccentricity": 0.00029065,
      "inclination_deg": 0.0419,
      "raan_deg": 35.2892,
      "arg_perigee_deg": 332.49,
      "mean_anomaly_deg": 300.5955,
      "mean_motion_rev_day": 1.00271866
    },
    {
      "epoch": "2026-03-29T03:26:38.592672",
      "apogee_km": 35798.867294628086,
      "perigee_km": 35774.20096201802,
      "latitude_deg": -0.007300719420045507,
      "longitude_deg": 1.9762140801176429,
      "semi_major_axis_km": 42164.671128323054,
      "eccentricity": 0.0002925,
      "inclination_deg": 0.0429,
      "raan_deg": 35.4102,
      "arg_perigee_deg": 333.3776,
      "mean_anomaly_deg": 112.6008,
      "mean_motion_rev_day": 1.00272002
    }
  ]
}